[{"OBJECT_NAME":"UNISAT-6","OBJECT_ID":"2014-033C","EPOCH":"2026-03-09T22:37:09.123744","MEAN_MOTION":14.87640019,"ECCENTRICITY":0.00460496,"INCLINATION":97.7728,"RA_OF_ASC_NODE":223.5167,"ARG_OF_PERICENTER":36.9255,"MEAN_ANOMALY":323.5117,"EPHEMERIS_TYPE":0,"CLASSIFICATION_TYPE":"U","NORAD_CAT_ID":40012,"ELEMENT_SET_NO":999,"REV_AT_EPOCH":63140,"BSTAR":0.00041207686,"MEAN_MOTION_DOT":3.766e-5,"MEAN_MOTION_DDOT":0},{"OBJECT_NAME":"STARLINK-5632","OBJECT_ID":"2023-014K","EPOCH":"2026-03-09T09:54:39.591936","MEAN_MOTION":14.98333803,"ECCENTRICITY":0.00031342,"INCLINATION":69.9997,"RA_OF_ASC_NODE":65.1642,"ARG_OF_PERICENTER":268.4427,"MEAN_ANOMALY":91.6373,"EPHEMERIS_TYPE":0,"CLASSIFICATION_TYPE":"U","NORAD_CAT_ID":55400,"ELEMENT_SET_NO":999,"REV_AT_EPOCH":17201,"BSTAR":3.188593e-5,"MEAN_MOTION_DOT":2.87e-6,"MEAN_MOTION_DDOT":0}]
